0 THORAD AGENA D DEB
1 05186U 70025KC  13281.30007532  .00028430  00000-0  30238-2 0  8746
2 05186 099.9645 039.4334 0022482 161.0231 227.8719 14.88742993734669
0 THORAD AGENA D DEB
1 05186U 70025KC  13282.19056951  .00057111  00000-0  60285-2 0  8757
2 05186 099.9641 040.5517 0022158 158.4176 320.4100 14.88829802734792
0 THORAD AGENA D DEB
1 05186U 70025KC  13282.86345206  .00042539  00000-0  44941-2 0  8765
2 05186 099.9637 041.3968 0022078 156.7608 326.5728 14.88900342734891
0 THORAD AGENA D DEB
1 05186U 70025KC  13283.57970428  .00035657  00000-0  37802-2 0  8776
2 05186 099.9659 042.2922 0023307 156.3234 203.9556 14.88923460735009
0 THORAD AGENA D DEB
1 05186U 70025KC  13283.99445453  .00047124  00000-0  49649-2 0  8771
2 05186 099.9633 042.8175 0021835 153.3906 268.8443 14.88980873735066
0 THORAD AGENA D DEB
1 05186U 70025KC  13285.82528524  .00039955  00000-0  42015-2 0  8791
2 05186 099.9638 045.1182 0021576 147.9786 002.9168 14.89117430735335
0 THORAD AGENA D DEB
1 05186U 70025KC  13287.01654632  .00039300  00000-0  41245-2 0  8804
2 05186 099.9638 046.6145 0021429 143.9991 269.5631 14.89204165735519
0 THORAD AGENA D DEB
1 05186U 70025KC  13288.09123023  .00072671  00000-0  75649-2 0  8812
2 05186 099.9643 047.9655 0021030 140.3728 271.5925 14.89308600735677
0 THORAD AGENA D DEB
1 05186U 70025KC  13288.84383053  .00055603  00000-0  57921-2 0  8826
2 05186 099.9645 048.9115 0020906 138.1129 346.7353 14.89394928735782
0 THORAD AGENA D DEB
1 05186U 70025KC  13289.58369043  .00060230  00000-0  62605-2 0  8839
2 05186 099.9647 049.8417 0020685 135.7887 353.8847 14.89454969735898
0 THORAD AGENA D DEB
1 05186U 70025KC  13290.59160049  .00060347  00000-0  62575-2 0  8843
2 05186 099.9648 051.1091 0020396 132.5859 358.6401 14.89556214736049
0 THORAD AGENA D DEB
1 05186U 70025KC  13291.59909154  .00050579  00000-0  52410-2 0  8856
2 05186 099.9648 052.3761 0020147 129.3971 001.5002 14.89654138736190
0 THORAD AGENA D DEB
1 05186U 70025KC  13292.81218947  .00049436  00000-0  51097-2 0  8866
2 05186 099.9649 053.9017 0019831 125.3981 027.5654 14.89768377736379
0 THORAD AGENA D DEB
1 05186U 70025KC  13293.81948421  .00052374  00000-0  53999-2 0  8873
2 05186 099.9646 055.1689 0019560 122.1535 030.1631 14.89851895736524
0 THORAD AGENA D DEB
1 05186U 70025KC  13294.82662178  .00061382  00000-0  63052-2 0  8888
2 05186 099.9644 056.4361 0019459 118.6892 032.4585 14.89941983736673
0 THORAD AGENA D DEB
1 05186U 70025KC  13295.27979012  .00059919  00000-0  61510-2 0  8897
2 05186 099.9642 057.0063 0019393 117.0059 303.4909 14.89978294736746
